satname,norad_id,inclination_deg,eccentricity,mean_motion_rev_per_day,perigee_km,apogee_km,l1,l2
STARLINK-1573,46061,53.1594,0.0001029,15.31707009,470.01435454815964,471.42384913391834,1 46061U 20055AL  26197.40482037  .00000815  00000+0  38018-4 0  9999,2 46061  53.1594 234.9885 0001029  88.9266 271.1854 15.31707009328796
STARLINK-1577,46063,53.1575,0.0001071,15.31703123,469.997172011831,471.464199470116,1 46063U 20055AN  26197.83335647 -.00009446  00000+0 -29298-3 0  9992,2 46063  53.1575 232.9877 0001071  74.1223 336.0398 15.31703123  5905
STARLINK-1583,46064,53.1596,0.000138,15.31717631,469.74230086369516,471.6325764087587,1 46064U 20055AP  26197.51206013  .00002685  00000+0  98213-4 0  9992,2 46064  53.1596 234.9857 0001380  86.3255 273.7904 15.31717631328796
STARLINK-1536,46070,53.1592,0.00011,15.31700593,469.9848512490471,471.49160379910336,1 46070U 20055AV  26197.44812275 -.00000474  00000+0 -35080-5 0  9994,2 46070  53.1592 222.6618 0001100  83.8575 276.2552 15.31700593328960
STARLINK-1542,46073,53.1591,0.0001282,15.3170676,469.84182064410925,471.5978675389342,1 46073U 20055AY  26197.34198939 -.00000523  00000+0 -50736-5 0  9990,2 46073  53.1591 226.1325 0001282  62.9790 297.1342 15.31706760328897
STARLINK-1549,46074,53.0477,0.0002268,15.34544512,460.7223486374842,463.82515895540655,1 46074U 20055AZ  26197.34616265  .00021352  00000+0  63831-3 0  9997,2 46074  53.0477 222.5964 0002268  40.7889 319.3281 15.34544512328928
STARLINK-1551,46075,53.1593,0.0001332,15.31706797,469.8074660803177,471.6320015142028,1 46075U 20055BA  26197.50437841  .00000490  00000+0  27542-4 0  9997,2 46075  53.1593 222.3445 0001332  77.6837 282.4313 15.31706797328966
STARLINK-1552,46076,53.157,0.000113,15.31710639,469.93436158706027,471.48220062059045,1 46076U 20055BB  26197.42508630  .00001723  00000+0  67243-4 0  9996,2 46076  53.1570 222.2968 0001130  83.7326 276.3804 15.31710639328943
STARLINK-1559,46077,53.0195,0.0004528,15.41843313,437.58163787284684,443.75674876151515,1 46077U 20055BC  26197.27418322  .00028319  00000+0  66455-3 0  9991,2 46077  53.0195 189.5947 0004528  36.7559 323.3755 15.41843313329348
STARLINK-1566,46079,53.1592,0.0001205,15.31699154,469.91722712697356,471.56780709059694,1 46079U 20055BE  26197.56023487 -.00000905  00000+0 -17394-4 0  9991,2 46079  53.1592 221.5186 0001205  87.7502 272.3637 15.31699154328989
STARLINK-1568,46080,53.0566,0.0003059,15.57494413,392.83948219341437,396.9832331786465,1 46080U 20055BF  26197.80350146  .00030786  00000+0  41620-3 0  9991,2 46080  53.0566 131.7064 0003059 116.5437 243.5888 15.57494413330244
STARLINK-1578,46082,53.1594,0.0001093,15.31713163,469.9521793217227,471.4493352554664,1 46082U 20055BH  26197.56462102  .00001585  00000+0  62797-4 0  9996,2 46082  53.1594 222.0185 0001093  84.8102 275.3024 15.31713163328978
STARLINK-1579,46083,53.1591,0.0001254,15.31712481,469.8439457570421,471.5616347764417,1 46083U 20055BJ  26197.35515738  .00000645  00000+0  32543-4 0  9990,2 46083  53.1591 222.5281 0001254  79.7017 280.4126 15.31712481328944
STARLINK-1622,46128,53.0033,0.0013614,16.15178972,223.67402665123336,241.6739428004439,1 46128U 20057M   26197.79322220  .01001059  66499-3  72086-3 0  9996,2 46128  53.0033 295.7498 0013614 328.5628  31.4592 16.15178972327777
STARLINK-1623,46129,53.0357,0.0004256,15.87331109,306.9225621481128,312.6153076799128,1 46129U 20057N   26197.83335647  .00199528  00000+0  72880-3 0  9991,2 46129  53.0357 338.3746 0004256 300.9213 114.1117 15.87331109  5982
STARLINK-1596,46141,53.0334,0.0001861,15.66451991,367.81042597540454,370.32173496195537,1 46141U 20057AA  26197.82922642  .00052196  00000+0  49435-3 0  9990,2 46141  53.0334 325.7922 0001861 243.0686 117.0139 15.66451991327372
STARLINK-1597,46142,53.0364,0.0004594,15.85775114,311.0686597607755,317.2175267104403,1 46142U 20057AB  26197.83335647  .00136628  00000+0  54314-3 0  9990,2 46142  53.0364  18.3412 0004594 257.0938 183.0643 15.85775114  5931
STARLINK-1608,46146,53.1564,0.0004786,15.39633203,443.9265288348688,450.4597348370635,1 46146U 20057AF  26197.64966204  .00024335  00000+0  61601-3 0  9990,2 46146  53.1564  66.8449 0004786 112.0741 248.0772 15.39633203325976
STARLINK-1595,46159,53.0346,0.0002598,15.82381189,321.96769985330775,325.44997895146207,1 46159U 20057AU  26197.53616993  .00151772  00000+0  70764-3 0  9995,2 46159  53.0346  23.3464 0002598 233.3540 126.7243 15.82381189327793
STARLINK-1598,46160,53.043,0.0004319,15.80604124,325.83443588576847,331.627828578391,1 46160U 20057AV  26197.84917792  .00100891  00000+0  51476-3 0  9997,2 46160  53.0430   8.2081 0004319 307.7022  52.3607 15.80604124328020
STARLINK-1626,46167,53.0363,0.0006261,15.86364483,308.2964398762697,316.6744372938665,1 46167U 20057BC  26197.66993644  .00148826  00000+0  57354-3 0  9995,2 46167  53.0363  17.3140 0006261 278.0620  81.9692 15.86364483326635
STARLINK-1633,46171,53.0257,0.0012942,16.05613039,250.31561249852894,267.494932716947,1 46171U 20057BG  26197.89366421  .00474316  11703-3  64381-3 0  9992,2 46171  53.0257 333.7930 0012942 316.5451  43.4559 16.05613039328517
STARLINK-1640,46173,53.0359,0.0003348,15.82713303,320.52780619326495,325.01473437104687,1 46173U 20057BJ  26197.83335647  .00067385  00000+0  31417-3 0  9996,2 46173  53.0359  22.8382 0003348 241.8456 186.0232 15.82713303  5988
STARLINK-1641,46174,53.045,0.0003373,15.68876203,359.8403283366979,364.3873015364543,1 46174U 20057BK  26197.65883564  .00051685  00000+0  44365-3 0  9995,2 46174  53.0450  18.6681 0003373 282.4225  77.6413 15.68876203326614
STARLINK-1695,46329,53.0371,0.0005176,15.86762308,307.90461190783753,314.829586551361,1 46329U 20062E   26197.83335647  .00114723  00000+0  43614-3 0  9996,2 46329  53.0371  59.3708 0005176 254.8333 185.0870 15.86762308  6038
STARLINK-1719,46331,53.026,0.0008213,16.01637281,264.4241718372723,275.3442114466625,1 46331U 20062G   26197.82124352  .00410987  85015-4  71415-3 0  9992,2 46331  53.0260  56.2656 0008213 256.4262 103.5853 16.01637281325185
STARLINK-1759,46340,53.0,0.0011173,16.20280433,211.41983166018235,226.1613260278673,1 46340U 20062R   26198.05475266  .01676048  11820-4  81594-3 0  9996,2 46340  53.0000  42.6196 0011173 271.5340  88.4417 16.20280433325371
STARLINK-1762,46342,53.1542,0.0004143,15.4173293,438.1694925641723,443.8198250566629,1 46342U 20062T   26197.79761566  .00029401  00000+0  69211-3 0  9998,2 46342  53.1542 126.2614 0004143  39.4527 320.6779 15.41732930324238
